NORAD_CAT_ID,OBJECT_NAME,OBJECT_TYPE,EPOCH,MEAN_MOTION,ECCENTRICITY,INCLINATION,RA_OF_ASC_NODE,ARG_OF_PERICENTER,MEAN_ANOMALY,BSTAR,MEAN_MOTION_DOT,MEAN_MOTION_DDOT,TLE_LINE0,TLE_LINE1,TLE_LINE2,SEMIMAJOR_AXIS,PERIOD,APOGEE,PERIGEE,DECAYED
52708.0,STARLINK-3962,PAYLOAD,2022-11-20 12:47:48,15.08834967,0.0002971,53.218,144.2748,41.6013,318.5205,6.375e-05,7.26e-06,0.0,0 STARLINK-3962,1 52708U 22053BE  22324.53320514  .00000726  00000-0  63750-4 0  9990,2 52708  53.2180 144.2748 0002971  41.6013 318.5205 15.08834967 29586,6917.896,95.438,541.816,537.705,0.0
52708.0,STARLINK-3962,PAYLOAD,2022-11-20 19:09:21,15.08835615,0.0002997,53.218,143.0855,42.2687,317.8535,6.1673e-05,6.93e-06,0.0,0 STARLINK-3962,1 52708U 22053BE  22324.79816520  .00000693  00000-0  61673-4 0  9990,2 52708  53.2180 143.0855 0002997  42.2687 317.8535 15.08835615 29628,6917.894,95.438,541.832,537.685,0.0
52708.0,STARLINK-3962,PAYLOAD,2022-11-21 07:52:26,15.08839349,0.0002981,53.218,140.707,43.842,316.2808,7.461100000000001e-05,8.99e-06,0.0,0 STARLINK-3962,1 52708U 22053BE  22325.32808425  .00000899  00000-0  74611-4 0  9999,2 52708  53.2180 140.7070 0002981  43.8420 316.2808 15.08839349 29709,6917.882,95.438,541.81,537.685,0.0
52708.0,STARLINK-3962,PAYLOAD,2022-11-21 15:49:22,15.08839306,0.0003007,53.218,139.2202,44.8042,315.3193,0.00012081,1.635e-05,0.0,0 STARLINK-3962,1 52708U 22053BE  22325.65928341  .00001635  00000-0  12081-3 0  9996,2 52708  53.2180 139.2202 0003007  44.8042 315.3193 15.08839306 29126,6917.8830000000025,95.438,541.828,537.6669999999998,0.0
52708.0,STARLINK-3962,PAYLOAD,2022-11-21 17:24:45,15.08839664,0.0003007,53.218,138.923,44.7928,315.3306,0.00012285,1.667e-05,0.0,0 STARLINK-3962,1 52708U 22053BE  22325.72552331  .00001667  00000-0  12285-3 0  9997,2 52708  53.2180 138.9230 0003007  44.7928 315.3306 15.08839664 29768,6917.880999999999,95.438,541.827,537.6659999999998,0.0
52708.0,STARLINK-3962,PAYLOAD,2022-11-21 22:10:54,15.08841395,0.0003028,53.218,138.0308,45.172,314.9517,0.00013129,1.802e-05,0.0,0 STARLINK-3962,1 52708U 22053BE  22325.92424230  .00001802  00000-0  13129-3 0  9994,2 52708  53.2180 138.0308 0003028  45.1720 314.9517 15.08841395 29799,6917.876,95.437,541.836,537.646,0.0
52708.0,STARLINK-3962,PAYLOAD,2022-11-22 17:15:31,15.08847648,0.0003104,53.2182,134.4628,45.795,314.3296,0.00013274,1.825e-05,0.0,0 STARLINK-3962,1 52708U 22053BE  22326.71911727  .00001825  00000-0  13274-3 0  9990,2 52708  53.2182 134.4628 0003104  45.7950 314.3296 15.08847648 29281,6917.857,95.437,541.869,537.575,0.0
52708.0,STARLINK-3962,PAYLOAD,2022-11-22 18:50:54,15.08847536,0.0003111,53.2182,134.1655,45.8604,314.2644,0.00012841,1.756e-05,0.0,0 STARLINK-3962,1 52708U 22053BE  22326.78535665  .00001756  00000-0  12841-3 0  9992,2 52708  53.2182 134.1655 0003111  45.8604 314.2644 15.08847536 29926,6917.857,95.437,541.874,537.57,0.0
52708.0,STARLINK-3962,PAYLOAD,2022-11-23 04:23:13,15.08849942,0.0003116,53.2183,132.3813,46.6858,313.4394,0.00012528,1.706e-05,0.0,0 STARLINK-3962,1 52708U 22053BE  22327.18279384  .00001706  00000-0  12528-3 0  9997,2 52708  53.2183 132.3813 0003116  46.6858 313.4394 15.08849942 29980,6917.85,95.437,541.871,537.559,0.0
52708.0,STARLINK-3962,PAYLOAD,2022-11-23 17:06:19,15.08840163,0.000289,53.2184,130.0014,51.6969,308.4283,5.8241999999999975e-06,-1.96e-06,0.0,0 STARLINK-3962,1 52708U 22053BE  22327.71272109 -.00000196  00000-0  58242-5 0  9992,2 52708  53.2184 130.0014 0002890  51.6969 308.4283 15.08840163 29433,6917.88,95.438,541.744,537.746,0.0
52708.0,STARLINK-3962,PAYLOAD,2022-11-23 18:41:42,15.08840234,0.0002948,53.2185,129.7044,49.9381,310.187,2.3031e-06,-2.52e-06,0.0,0 STARLINK-3962,1 52708U 22053BE  22327.77896076 -.00000252  00000-0  23031-5 0  9994,2 52708  53.2185 129.7044 0002948  49.9381 310.1870 15.08840234 30077,6917.88,95.438,541.784,537.705,0.0
52708.0,STARLINK-3962,PAYLOAD,2022-11-24 10:35:33,15.08845403,0.0003008,53.219,126.7295,51.0772,309.0488,5.3204999999999984e-06,-2.04e-06,0.0,0 STARLINK-3962,1 52708U 22053BE  22328.44135630 -.00000204  00000-0  53205-5 0  9994,2 52708  53.2190 126.7295 0003008  51.0772 309.0488 15.08845403 30170,6917.864000000001,95.437,541.81,537.648,0.0
52708.0,STARLINK-3962,PAYLOAD,2022-11-24 16:57:05,15.08849486,0.0002968,53.2186,125.5409,52.1494,307.9767,1.7255e-05,-1.4e-07,0.0,0 STARLINK-3962,1 52708U 22053BE  22328.70631181 -.00000014  00000-0  17255-4 0  9998,2 52708  53.2186 125.5409 0002968  52.1494 307.9767 15.08849486 29581,6917.851,95.437,541.77,537.663,0.0
52708.0,STARLINK-3962,PAYLOAD,2022-11-25 10:26:19,15.08841464,0.0003045,53.2186,122.271,51.1684,308.958,9.0772e-05,1.156e-05,0.0,0 STARLINK-3962,1 52708U 22053BE  22329.43495071  .00001156  00000-0  90772-4 0  9997,2 52708  53.2186 122.2710 0003045  51.1684 308.9580 15.08841464 30323,6917.876,95.437,541.847,537.634,0.0
52708.0,STARLINK-3962,PAYLOAD,2022-11-25 16:47:52,15.0883602,0.0003032,53.2186,121.0812,51.2482,308.878,4.0862e-05,3.62e-06,0.0,0 STARLINK-3962,1 52708U 22053BE  22329.69991635  .00000362  00000-0  40862-4 0  9995,2 52708  53.2186 121.0812 0003032  51.2482 308.8780 15.08836020 29732,6917.893,95.438,541.855,537.66,0.0
52708.0,STARLINK-3962,PAYLOAD,2022-11-26 10:17:06,15.08844312,0.0003035,53.2189,117.8103,51.8638,308.2627,2.8699e-05,1.68e-06,0.0,0 STARLINK-3962,1 52708U 22053BE  22330.42855148  .00000168  00000-0  28699-4 0  9994,2 52708  53.2189 117.8103 0003035  51.8638 308.2627 15.08844312 29842,6917.8669999999975,95.437,541.832,537.633,0.0
52708.0,STARLINK-3962,PAYLOAD,2022-11-26 16:38:39,15.08847684,0.0003049,53.2187,116.6212,51.33600000000001,308.7904,6.0344e-05,6.72e-06,0.0,0 STARLINK-3962,1 52708U 22053BE  22330.69350759  .00000672  00000-0  60344-4 0  9994,2 52708  53.2187 116.6212 0003049  51.3360 308.7904 15.08847684 30514,6917.857,95.437,541.831,537.613,0.0
52708.0,STARLINK-3962,PAYLOAD,2022-11-27 10:07:53,15.08840383,0.0003031,53.2187,113.3503,50.549,309.577,5.9756e-05,6.63e-06,0.0,0 STARLINK-3962,1 52708U 22053BE  22331.42214957  .00000663  00000-0  59756-4 0  9990,2 52708  53.2187 113.3503 0003031  50.5490 309.5770 15.08840383 30628,6917.879,95.438,541.841,537.6469999999998,0.0
52708.0,STARLINK-3962,PAYLOAD,2022-11-27 14:54:03,15.08836071,0.0003024,53.2186,112.4584,50.3224,309.8035,2.1007e-05,4.6e-07,0.0,0 STARLINK-3962,1 52708U 22053BE  22331.62087320  .00000046  00000-0  21007-4 0  9997,2 52708  53.2186 112.4584 0003024  50.3224 309.8035 15.08836071 30021,6917.892,95.438,541.849,537.665,0.0
52708.0,STARLINK-3962,PAYLOAD,2022-11-27 16:29:26,15.08835812,0.0003031,53.2185,112.1613,50.6129,309.5131,5.623e-05,6.06e-06,0.0,0 STARLINK-3962,1 52708U 22053BE  22331.68711294  .00000606  00000-0  56230-4 0  9995,2 52708  53.2185 112.1613 0003031  50.6129 309.5131 15.08835812 30661,6917.893,95.438,541.855,537.661,0.0
52708.0,STARLINK-3962,PAYLOAD,2022-11-28 09:58:41,15.08833872,0.0002988,53.2185,108.8906,53.5726,306.5542,-5.4651e-05,-1.158e-05,0.0,0 STARLINK-3962,1 52708U 22053BE  22332.41576169 -.00001158  00000-0 -54651-4 0  9997,2 52708  53.2185 108.8906 0002988  53.5726 306.5542 15.08833872 30143,6917.899,95.438,541.831,537.697,0.0
52708.0,STARLINK-3962,PAYLOAD,2022-11-28 16:20:14,15.0883475,0.0003017,53.2185,107.7003,53.4922,306.6348,-4.4953e-05,-1.004e-05,0.0,0 STARLINK-3962,1 52708U 22053BE  22332.68072171 -.00001004  00000-0 -44953-4 0  9994,2 52708  53.2185 107.7003 0003017  53.4922 306.6348 15.08834750 30815,6917.896,95.438,541.849,537.674,0.0
52708.0,STARLINK-3962,PAYLOAD,2022-11-29 08:14:05,15.08839946,0.0002861,53.2188,104.7261,54.5241,305.6018,5.2822e-05,5.52e-06,0.0,0 STARLINK-3962,1 52708U 22053BE  22333.34311690  .00000552  00000-0  52822-4 0  9999,2 52708  53.2188 104.7261 0002861  54.5241 305.6018 15.08839946 30289,6917.880999999999,95.438,541.725,537.766,0.0
52708.0,STARLINK-3962,PAYLOAD,2022-11-29 09:49:28,15.08841229,0.0002918,53.2187,104.4294,53.4048,306.7213,6.9114e-05,8.12e-06,0.0,0 STARLINK-3962,1 52708U 22053BE  22333.40935590  .00000812  00000-0  69114-4 0  9998,2 52708  53.2187 104.4294 0002918  53.4048 306.7213 15.08841229 30924,6917.877,95.437,541.76,537.7230000000002,0.0
52708.0,STARLINK-3962,PAYLOAD,2022-11-29 13:00:14,15.08843178,0.0002929,53.2189,103.8348,53.0829,307.0431,0.00011437,1.532e-05,0.0,0 STARLINK-3962,1 52708U 22053BE  22333.54183391  .00001532  00000-0  11437-3 0  9991,2 52708  53.2189 103.8348 0002929  53.0829 307.0431 15.08843178 30947,6917.871,95.437,541.762,537.7090000000002,0.0
52708.0,STARLINK-3962,PAYLOAD,2022-11-29 16:11:00,15.08847137,0.0002913,53.2189,103.2399,53.7172,306.4089,0.00012619,1.721e-05,0.0,0 STARLINK-3962,1 52708U 22053BE  22333.67431183  .00001721  00000-0  12619-3 0  9993,2 52708  53.2189 103.2399 0002913  53.7172 306.4089 15.08847137 30332,6917.859,95.437,541.739,537.7080000000002,0.0
52708.0,STARLINK-3962,PAYLOAD,2022-11-30 08:04:53,15.08832676,0.0003028,53.2193,100.2675,51.0185,309.1076,9.0764e-05,1.156e-05,0.0,0 STARLINK-3962,1 52708U 22053BE  22334.33672476  .00001156  00000-0  90764-4 0  9999,2 52708  53.2193 100.2675 0003028  51.0185 309.1076 15.08832676 30433,6917.903,95.438,541.863,537.673,0.0
52708.0,STARLINK-3962,PAYLOAD,2022-11-30 17:37:11,15.08839409,0.0003078999999999,53.2195,98.4839,52.3187,307.8084,0.00010882,1.444e-05,0.0,0 STARLINK-3962,1 52708U 22053BE  22334.73416125  .00001444  00000-0  10882-3 0  9992,2 52708  53.2195  98.4839 0003079  52.3187 307.8084 15.08839409 31129,6917.882,95.438,541.877,537.617,0.0
52708.0,STARLINK-3962,PAYLOAD,2022-12-01 01:34:06,15.08845273,0.0002952,53.2197,96.997,51.5716,308.5541,0.00010876,1.443e-05,0.0,0 STARLINK-3962,1 52708U 22053BE  22335.06535667  .00001443  00000-0  10876-3 0  9994,2 52708  53.2197  96.9970 0002952  51.5716 308.5541 15.08845273 30545,6917.864000000001,95.437,541.771,537.687,0.0
